NORAD_CAT_ID,OBJECT_NAME,OBJECT_TYPE,EPOCH,MEAN_MOTION,ECCENTRICITY,INCLINATION,RA_OF_ASC_NODE,ARG_OF_PERICENTER,MEAN_ANOMALY,BSTAR,MEAN_MOTION_DOT,MEAN_MOTION_DDOT,TLE_LINE0,TLE_LINE1,TLE_LINE2,SEMIMAJOR_AXIS,PERIOD,APOGEE,PERIGEE,DECAYED
53134.0,STARLINK-4150,PAYLOAD,2024-07-07 19:15:21,15.08841071,0.0001053,53.2189,32.0163,111.2069,248.9035,3.0955e-05,2.05e-06,0.0,0 STARLINK-4150,1 53134U 22083C   24189.80232953  .00000205  00000-0  30955-4 0  9990,2 53134  53.2189  32.0163 0001053 111.2069 248.9035 15.08841071109770,6917.877,95.437,540.471,539.014,0.0
53134.0,STARLINK-4150,PAYLOAD,2024-07-08 06:23:03,15.08842169,0.0001029,53.2194,29.9345,104.7818,255.3288,7.5928e-06,-1.67e-06,0.0,0 STARLINK-4150,1 53134U 22083C   24190.26600946 -.00000167  00000-0  75928-5 0  9991,2 53134  53.2194  29.9345 0001029 104.7818 255.3288 15.08842169109215,6917.874,95.437,540.451,539.027,0.0
53134.0,STARLINK-4150,PAYLOAD,2024-07-08 20:41:31,15.08841531,0.0001004,53.2189,27.2566,95.079,265.0317,0.00012312,1.672e-05,0.0,0 STARLINK-4150,1 53134U 22083C   24190.86216846  .00001672  00000-0  12312-3 0  9996,2 53134  53.2189  27.2566 0001004  95.0790 265.0317 15.08841531109931,6917.876,95.437,540.435,539.046,0.0
53134.0,STARLINK-4150,PAYLOAD,2024-07-08 22:16:54,15.0884351,9.77e-05,53.2186,26.9581,86.2975,273.8129,0.00013791,1.908e-05,0.0,0 STARLINK-4150,1 53134U 22083C   24190.92840694  .00001908  00000-0  13791-3 0  9991,2 53134  53.2186  26.9581 0000977  86.2975 273.8129 15.08843510109315,6917.87,95.437,540.411,539.059,0.0
53134.0,STARLINK-4150,PAYLOAD,2024-07-09 12:35:23,15.08836665,0.0001017,53.2176,24.2841,89.097,271.0139,3.4953e-05,2.69e-06,0.0,0 STARLINK-4150,1 53134U 22083C   24191.52457471  .00000269  00000-0  34953-4 0  9998,2 53134  53.2176  24.2841 0001017  89.0970 271.0139 15.08836665110031,6917.891,95.438,540.459,539.052,0.0
53134.0,STARLINK-4150,PAYLOAD,2024-07-09 20:32:18,15.08838621,0.0001085,53.2184,22.7963,87.753,272.3586,1.8677e-05,9e-08,0.0,0 STARLINK-4150,1 53134U 22083C   24191.85577506  .00000009  00000-0  18677-4 0  9993,2 53134  53.2184  22.7963 0001085  87.7530 272.3586 15.08838621109458,6917.885,95.438,540.5,538.999,0.0
53134.0,STARLINK-4150,PAYLOAD,2024-07-10 06:04:37,15.08838188,0.0001088,53.2188,21.0108,76.9643,283.147,1.7731e-05,-6e-08,0.0,0 STARLINK-4150,1 53134U 22083C   24192.25321580 -.00000006  00000-0  17731-4 0  9995,2 53134  53.2188  21.0108 0001088  76.9643 283.1470 15.08838188109510,6917.886,95.438,540.504,538.998,0.0
53134.0,STARLINK-4150,PAYLOAD,2024-07-11 12:16:57,15.0884315,0.0001401,53.2187,15.3619,74.2825,285.8321,6.4974e-05,7.46e-06,0.0,0 STARLINK-4150,1 53134U 22083C   24193.51177202  .00000746  00000-0  64974-4 0  9996,2 53134  53.2187  15.3619 0001401  74.2825 285.8321 15.08843150109704,6917.871,95.437,540.705,538.767,0.0
53134.0,STARLINK-4150,PAYLOAD,2024-07-11 18:38:29,15.08842834,6.86e-05,53.2179,14.1696,92.3503,267.7568,0.00023141,3.397e-05,0.0,0 STARLINK-4150,1 53134U 22083C   24193.77672544  .00003397  00000-0  23141-3 0  9998,2 53134  53.2179  14.1696 0000686  92.3503 267.7568 15.08842834110370,6917.872,95.437,540.211,539.262,0.0
53134.0,STARLINK-4150,PAYLOAD,2024-07-12 18:29:16,15.0884155,9.6e-05,53.218,9.7097,80.9798,279.1302,5.5967e-05,6.03e-06,0.0,0 STARLINK-4150,1 53134U 22083C   24194.77033208  .00000603  00000-0  55967-4 0  9996,2 53134  53.2180   9.7097 0000960  80.9798 279.1302 15.08841550110525,6917.876,95.437,540.405,539.077,0.0
53134.0,STARLINK-4150,PAYLOAD,2024-07-12 21:40:02,15.08848868,0.0001063,53.2181,9.1149,85.5921,274.5193,8.1167e-06,-1.59e-06,0.0,0 STARLINK-4150,1 53134U 22083C   24194.90281094 -.00000159  00000-0  81167-5 0  9998,2 53134  53.2181   9.1149 0001063  85.5921 274.5193 15.08848868109919,6917.853,95.437,540.454,538.983,0.0
53134.0,STARLINK-4150,PAYLOAD,2024-07-13 11:58:31,15.08841467,0.0001025,53.2184,6.4378,93.3421,266.7688,-5.4649e-05,-1.157e-05,0.0,0 STARLINK-4150,1 53134U 22083C   24195.49897600 -.00001157  00000-0 -54649-4 0  9993,2 53134  53.2184   6.4378 0001025  93.3421 266.7688 15.08841467110008,6917.876,95.437,540.45,539.032,0.0
53134.0,STARLINK-4150,PAYLOAD,2024-07-13 18:20:03,15.08849846,0.0001054,53.2186,5.2511,86.6101,273.5011,4.4759e-05,4.25e-06,0.0,0 STARLINK-4150,1 53134U 22083C   24195.76392759  .00000425  00000-0  44759-4 0  9994,2 53134  53.2186   5.2511 0001054  86.6101 273.5011 15.08849846110047,6917.85,95.437,540.444,538.986,0.0
53134.0,STARLINK-4150,PAYLOAD,2024-07-14 03:52:22,15.08844253,9.68e-05,53.2171,3.4661,80.7483,279.3618,1.7994e-06,-2.59e-06,0.0,0 STARLINK-4150,1 53134U 22083C   24196.16137068 -.00000259  00000-0  17994-5 0  9997,2 53134  53.2171   3.4661 0000968  80.7483 279.3618 15.08844253110738,6917.867,95.437,540.402,539.063,0.0
53134.0,STARLINK-4150,PAYLOAD,2024-07-14 15:00:04,15.08840747,0.0001279,53.2188,1.3839,88.0356,272.0782,6.2997e-05,7.15e-06,0.0,0 STARLINK-4150,1 53134U 22083C   24196.62505402  .00000715  00000-0  62997-4 0  9997,2 53134  53.2188   1.3839 0001279  88.0356 272.0782 15.08840747110170,6917.878,95.438,540.628,538.858,0.0
53134.0,STARLINK-4150,PAYLOAD,2024-07-14 18:10:50,15.08848773,0.0001138,53.2194,0.7921,99.4578,260.6542,0.00010723,1.42e-05,0.0,0 STARLINK-4150,1 53134U 22083C   24196.75752741  .00001420  00000-0  10723-3 0  9994,2 53134  53.2194   0.7921 0001138  99.4578 260.6542 15.08848773110194,6917.854,95.437,540.506,538.931,0.0
53134.0,STARLINK-4150,PAYLOAD,2024-07-15 10:04:42,15.0883494,0.0001569,53.219,357.8163,98.6647,261.4523,9.2759e-05,1.188e-05,0.0,0 STARLINK-4150,1 53134U 22083C   24197.41993852  .00001188  00000-0  92759-4 0  9999,2 53134  53.2190 357.8163 0001569  98.6647 261.4523 15.08834940110920,6917.896,95.438,540.846,538.675,0.0
53134.0,STARLINK-4150,PAYLOAD,2024-07-15 14:50:52,15.0883645,0.0001604,53.2177,356.9247,84.507,275.6105,-1.8602e-05,-5.84e-06,0.0,0 STARLINK-4150,1 53134U 22083C   24197.61866159 -.00000584  00000-0 -18602-4 0  9996,2 53134  53.2177 356.9247 0001604  84.5070 275.6105 15.08836450110327,6917.891,95.438,540.866,538.647,0.0
53134.0,STARLINK-4150,PAYLOAD,2024-07-15 18:01:38,15.08840083,0.0001212,53.219,356.3316,88.9059,271.2072,1.7901e-05,-3e-08,0.0,0 STARLINK-4150,1 53134U 22083C   24197.75113782 -.00000003  00000-0  17901-4 0  9994,2 53134  53.2190 356.3316 0001212  88.9059 271.2072 15.08840083110347,6917.88,95.438,540.584,538.907,0.0
53134.0,STARLINK-4150,PAYLOAD,2024-07-16 11:30:52,15.08834899,0.0001226,53.2197,353.0571,78.3314,281.7815,9.2248e-05,1.18e-05,0.0,0 STARLINK-4150,1 53134U 22083C   24198.47978005  .00001180  00000-0  92248-4 0  9994,2 53134  53.2197 353.0571 0001226  78.3314 281.7815 15.08834899111084,6917.896,95.438,540.609,538.913,0.0
53134.0,STARLINK-4150,PAYLOAD,2024-07-16 14:41:39,15.08839927,0.0001441,53.2205,352.4632,79.7286,280.3869,8.8819e-05,1.126e-05,0.0,0 STARLINK-4150,1 53134U 22083C   24198.61225872  .00001126  00000-0  88819-4 0  9996,2 53134  53.2205 352.4632 0001441  79.7286 280.3869 15.08839927110470,6917.881,95.438,540.742,538.749,0.0
53134.0,STARLINK-4150,PAYLOAD,2024-07-16 16:17:01,15.08843801,0.0001282,53.22,352.1648,83.8613,276.2525,5.5909e-05,6.02e-06,0.0,0 STARLINK-4150,1 53134U 22083C   24198.67849530  .00000602  00000-0  55909-4 0  9997,2 53134  53.2200 352.1648 0001282  83.8613 276.2525 15.08843801111113,6917.869,95.437,540.621,538.847,0.0
53134.0,STARLINK-4150,PAYLOAD,2024-07-17 09:46:17,15.088291,0.0001033,53.2176,348.8992,85.6297,274.4814,0.00010569,1.394e-05,0.0,0 STARLINK-4150,1 53134U 22083C   24199.40714363  .00001394  00000-0  10569-3 0  9995,2 53134  53.2176 348.8992 0001033  85.6297 274.4814 15.08829100111220,6917.914,95.438,540.493,539.064,0.0
53134.0,STARLINK-4150,PAYLOAD,2024-07-17 14:32:26,15.08828436,0.0001177,53.2183,348.0063,87.0825,273.0302,8.2787e-05,1.03e-05,0.0,0 STARLINK-4150,1 53134U 22083C   24199.60586775  .00001030  00000-0  82787-4 0  9990,2 53134  53.2183 348.0063 0001177  87.0825 273.0302 15.08828436110622,6917.916,95.438,540.595,538.966,0.0
53134.0,STARLINK-4150,PAYLOAD,2024-07-17 17:43:12,15.08845374,0.0001178,53.2192,347.4078,79.3702,280.7422,0.00012432,1.692e-05,0.0,0 STARLINK-4150,1 53134U 22083C   24199.73833677  .00001692  00000-0  12432-3 0  9993,2 53134  53.2192 347.4078 0001178  79.3702 280.7422 15.08845374111270,6917.864,95.437,540.544,538.914,0.0
53134.0,STARLINK-4150,PAYLOAD,2024-07-18 09:37:04,15.08834945,0.0001144,53.2187,344.4359,83.619,276.4932,6.0626e-05,6.77e-06,0.0,0 STARLINK-4150,1 53134U 22083C   24200.40074645  .00000677  00000-0  60626-4 0  9993,2 53134  53.2187 344.4359 0001144  83.6190 276.4932 15.08834945111376,6917.896,95.438,540.552,538.969,0.0
53134.0,STARLINK-4150,PAYLOAD,2024-07-18 14:23:13,15.08838764,0.0001172,53.2185,343.5454,83.1698,276.9427,0.00012004,1.623e-05,0.0,0 STARLINK-4150,1 53134U 22083C   24200.59946385  .00001623  00000-0  12004-3 0  9990,2 53134  53.2185 343.5454 0001172  83.1698 276.9427 15.08838764110779,6917.884,95.438,540.56,538.938,0.0
53134.0,STARLINK-4150,PAYLOAD,2024-07-18 15:58:36,15.08839341,0.0001134,53.2184,343.2477,82.9384,277.1737,0.00012304,1.671e-05,0.0,0 STARLINK-4150,1 53134U 22083C   24200.66570315  .00001671  00000-0  12304-3 0  9990,2 53134  53.2184 343.2477 0001134  82.9384 277.1737 15.08839341110787,6917.882,95.438,540.532,538.963,0.0
53134.0,STARLINK-4150,PAYLOAD,2024-07-19 12:38:37,15.08839895,0.0001256,53.2171,339.3822,85.7642,274.3493,0.00017366,2.477e-05,0.0,0 STARLINK-4150,1 53134U 22083C   24201.52682093  .00002477  00000-0  17366-3 0  9991,2 53134  53.2171 339.3822 0001256  85.7642 274.3493 15.08839895111543,6917.881,95.438,540.615,538.877,0.0
53134.0,STARLINK-4150,PAYLOAD,2024-07-19 14:14:00,15.08840424,0.0001322,53.2179,339.0845,85.4305,274.6838,0.00016452,2.331e-05,0.0,0 STARLINK-4150,1 53134U 22083C   24201.59306129  .00002331  00000-0  16452-3 0  9995,2 53134  53.2179 339.0845 0001322  85.4305 274.6838 15.08840424110927,6917.879,95.438,540.659,538.83,0.0
